[{"OBJECT_NAME":"STARLINK-34620","OBJECT_ID":"2025-150P","EPOCH":"2026-03-09T13:29:21.659136","MEAN_MOTION":14.98350238,"ECCENTRICITY":0.0003773,"INCLINATION":70.0012,"RA_OF_ASC_NODE":134.9355,"ARG_OF_PERICENTER":270.7588,"MEAN_ANOMALY":89.3139,"EPHEMERIS_TYPE":0,"CLASSIFICATION_TYPE":"U","NORAD_CAT_ID":64803,"ELEMENT_SET_NO":999,"REV_AT_EPOCH":3649,"BSTAR":0.00055824,"MEAN_MOTION_DOT":6.578e-5,"MEAN_MOTION_DDOT":0},{"OBJECT_NAME":"CZ-6A DEB","OBJECT_ID":"2024-140UU","EPOCH":"2026-03-09T14:59:25.616256","MEAN_MOTION":14.76478592,"ECCENTRICITY":0.0108839,"INCLINATION":89.1464,"RA_OF_ASC_NODE":292.2182,"ARG_OF_PERICENTER":203.0446,"MEAN_ANOMALY":156.5875,"EPHEMERIS_TYPE":0,"CLASSIFICATION_TYPE":"U","NORAD_CAT_ID":61331,"ELEMENT_SET_NO":999,"REV_AT_EPOCH":8105,"BSTAR":0.0015527,"MEAN_MOTION_DOT":0.00011943,"MEAN_MOTION_DDOT":0}]
